[{"OBJECT_NAME":"STARLINK-5181","OBJECT_ID":"2022-136V","EPOCH":"2026-02-02T16:25:17.351040","MEAN_MOTION":15.08844099,"ECCENTRICITY":0.0001401,"INCLINATION":53.2169,"RA_OF_ASC_NODE":140.9629,"ARG_OF_PERICENTER":87.6933,"MEAN_ANOMALY":272.422,"EPHEMERIS_TYPE":0,"CLASSIFICATION_TYPE":"U","NORAD_CAT_ID":54070,"ELEMENT_SET_NO":999,"REV_AT_EPOCH":18156,"BSTAR":0.00011874197,"MEAN_MOTION_DOT":1.603e-5,"MEAN_MOTION_DDOT":0},{"OBJECT_NAME":"STARLINK-5168","OBJECT_ID":"2022-136W","EPOCH":"2026-02-02T11:33:51.431328","MEAN_MOTION":15.0882508,"ECCENTRICITY":0.00019639,"INCLINATION":53.2176,"RA_OF_ASC_NODE":141.8307,"ARG_OF_PERICENTER":126.6973,"MEAN_ANOMALY":233.42,"EPHEMERIS_TYPE":0,"CLASSIFICATION_TYPE":"U","NORAD_CAT_ID":54071,"ELEMENT_SET_NO":999,"REV_AT_EPOCH":18153,"BSTAR":-2.3694676e-5,"MEAN_MOTION_DOT":-6.65e-6,"MEAN_MOTION_DDOT":0},{"OBJECT_NAME":"STARLINK-5146","OBJECT_ID":"2022-136Y","EPOCH":"2026-02-02T11:31:50.477376","MEAN_MOTION":15.08832865,"ECCENTRICITY":0.00017144,"INCLINATION":53.2192,"RA_OF_ASC_NODE":136.8414,"ARG_OF_PERICENTER":92.8802,"MEAN_ANOMALY":267.2387,"EPHEMERIS_TYPE":0,"CLASSIFICATION_TYPE":"U","NORAD_CAT_ID":54073,"ELEMENT_SET_NO":999,"REV_AT_EPOCH":18160,"BSTAR":0.0001193838,"MEAN_MOTION_DOT":1.612e-5,"MEAN_MOTION_DDOT":0},{"OBJECT_NAME":"STARLINK-5192","OBJECT_ID":"2022-136Z","EPOCH":"2026-02-03T06:33:09.569088","MEAN_MOTION":15.08835622,"ECCENTRICITY":0.00012222,"INCLINATION":53.2175,"RA_OF_ASC_NODE":138.2415,"ARG_OF_PERICENTER":82.5651,"MEAN_ANOMALY":277.548,"EPHEMERIS_TYPE":0,"CLASSIFICATION_TYPE":"U","NORAD_CAT_ID":54074,"ELEMENT_SET_NO":999,"REV_AT_EPOCH":18165,"BSTAR":8.76532e-6,"MEAN_MOTION_DOT":-1.48e-6,"MEAN_MOTION_DDOT":0},{"OBJECT_NAME":"STARLINK-5212","OBJECT_ID":"2022-136AA","EPOCH":"2026-02-02T13:01:55.051392","MEAN_MOTION":15.08845139,"ECCENTRICITY":0.00011398,"INCLINATION":53.2156,"RA_OF_ASC_NODE":136.5173,"ARG_OF_PERICENTER":89.1233,"MEAN_ANOMALY":270.989,"EPHEMERIS_TYPE":0,"CLASSIFICATION_TYPE":"U","NORAD_CAT_ID":54075,"ELEMENT_SET_NO":999,"REV_AT_EPOCH":18161,"BSTAR":8.3955428e-5,"MEAN_MOTION_DOT":1.049e-5,"MEAN_MOTION_DDOT":0},{"OBJECT_NAME":"STARLINK-5201","OBJECT_ID":"2022-136AB","EPOCH":"2026-02-02T17:35:38.625216","MEAN_MOTION":15.08844016,"ECCENTRICITY":0.00013854,"INCLINATION":53.2177,"RA_OF_ASC_NODE":141.2512,"ARG_OF_PERICENTER":107.1544,"MEAN_ANOMALY":252.96,"EPHEMERIS_TYPE":0,"CLASSIFICATION_TYPE":"U","NORAD_CAT_ID":54076,"ELEMENT_SET_NO":999,"REV_AT_EPOCH":18156,"BSTAR":7.2371205e-5,"MEAN_MOTION_DOT":8.64e-6,"MEAN_MOTION_DDOT":0},{"OBJECT_NAME":"STARLINK-5171","OBJECT_ID":"2022-136AC","EPOCH":"2026-02-02T11:46:38.676288","MEAN_MOTION":15.08848647,"ECCENTRICITY":0.00014918,"INCLINATION":53.2178,"RA_OF_ASC_NODE":117.7689,"ARG_OF_PERICENTER":89.8204,"MEAN_ANOMALY":270.2959,"EPHEMERIS_TYPE":0,"CLASSIFICATION_TYPE":"U","NORAD_CAT_ID":54077,"ELEMENT_SET_NO":999,"REV_AT_EPOCH":18187,"BSTAR":0.00028740466,"MEAN_MOTION_DOT":4.29e-5,"MEAN_MOTION_DDOT":0},{"OBJECT_NAME":"STARLINK-5175","OBJECT_ID":"2022-136AE","EPOCH":"2026-02-03T06:18:41.357952","MEAN_MOTION":15.08839764,"ECCENTRICITY":0.00011947,"INCLINATION":53.2177,"RA_OF_ASC_NODE":128.8966,"ARG_OF_PERICENTER":79.6272,"MEAN_ANOMALY":280.4855,"EPHEMERIS_TYPE":0,"CLASSIFICATION_TYPE":"U","NORAD_CAT_ID":54079,"ELEMENT_SET_NO":999,"REV_AT_EPOCH":18178,"BSTAR":-2.8513398e-5,"MEAN_MOTION_DOT":-7.42e-6,"MEAN_MOTION_DDOT":0},{"OBJECT_NAME":"STARLINK-5160","OBJECT_ID":"2022-136AF","EPOCH":"2026-02-03T06:10:04.247904","MEAN_MOTION":15.08840257,"ECCENTRICITY":0.00014294,"INCLINATION":53.2178,"RA_OF_ASC_NODE":133.8609,"ARG_OF_PERICENTER":96.5361,"MEAN_ANOMALY":263.5794,"EPHEMERIS_TYPE":0,"CLASSIFICATION_TYPE":"U","NORAD_CAT_ID":54080,"ELEMENT_SET_NO":999,"REV_AT_EPOCH":18171,"BSTAR":0.0001626065,"MEAN_MOTION_DOT":2.301e-5,"MEAN_MOTION_DDOT":0},{"OBJECT_NAME":"STARLINK-5210","OBJECT_ID":"2022-136AH","EPOCH":"2026-02-02T12:44:08.058048","MEAN_MOTION":15.08843541,"ECCENTRICITY":0.00012098,"INCLINATION":53.2167,"RA_OF_ASC_NODE":132.1394,"ARG_OF_PERICENTER":97.8395,"MEAN_ANOMALY":262.2734,"EPHEMERIS_TYPE":0,"CLASSIFICATION_TYPE":"U","NORAD_CAT_ID":54082,"ELEMENT_SET_NO":999,"REV_AT_EPOCH":18167,"BSTAR":7.5301822e-5,"MEAN_MOTION_DOT":9.11e-6,"MEAN_MOTION_DDOT":0},{"OBJECT_NAME":"STARLINK-5178","OBJECT_ID":"2022-136AJ","EPOCH":"2026-02-03T05:57:28.105344","MEAN_MOTION":15.08842165,"ECCENTRICITY":0.00016541,"INCLINATION":53.2188,"RA_OF_ASC_NODE":128.8027,"ARG_OF_PERICENTER":86.0398,"MEAN_ANOMALY":274.0783,"EPHEMERIS_TYPE":0,"CLASSIFICATION_TYPE":"U","NORAD_CAT_ID":54083,"ELEMENT_SET_NO":999,"REV_AT_EPOCH":18178,"BSTAR":-1.4645957e-5,"MEAN_MOTION_DOT":-5.21e-6,"MEAN_MOTION_DDOT":0},{"OBJECT_NAME":"STARLINK-5183","OBJECT_ID":"2022-136AK","EPOCH":"2026-02-02T15:49:35.580576","MEAN_MOTION":15.08846216,"ECCENTRICITY":1.569e-5,"INCLINATION":53.2168,"RA_OF_ASC_NODE":131.5204,"ARG_OF_PERICENTER":77.7331,"MEAN_ANOMALY":282.3678,"EPHEMERIS_TYPE":0,"CLASSIFICATION_TYPE":"U","NORAD_CAT_ID":54084,"ELEMENT_SET_NO":999,"REV_AT_EPOCH":18169,"BSTAR":0.00011002341,"MEAN_MOTION_DOT":1.464e-5,"MEAN_MOTION_DDOT":0},{"OBJECT_NAME":"STARLINK-5166","OBJECT_ID":"2022-136AL","EPOCH":"2026-02-03T05:53:32.428608","MEAN_MOTION":15.08840169,"ECCENTRICITY":0.00014915,"INCLINATION":53.2182,"RA_OF_ASC_NODE":128.7847,"ARG_OF_PERICENTER":94.3488,"MEAN_ANOMALY":265.7675,"EPHEMERIS_TYPE":0,"CLASSIFICATION_TYPE":"U","NORAD_CAT_ID":54085,"ELEMENT_SET_NO":999,"REV_AT_EPOCH":18178,"BSTAR":-1.1207582e-5,"MEAN_MOTION_DOT":-4.66e-6,"MEAN_MOTION_DDOT":0},{"OBJECT_NAME":"STARLINK-5211","OBJECT_ID":"2022-136AM","EPOCH":"2026-02-03T05:56:48.770016","MEAN_MOTION":15.08833613,"ECCENTRICITY":0.00012069,"INCLINATION":53.2151,"RA_OF_ASC_NODE":113.8391,"ARG_OF_PERICENTER":83.6457,"MEAN_ANOMALY":276.4673,"EPHEMERIS_TYPE":0,"CLASSIFICATION_TYPE":"U","NORAD_CAT_ID":54086,"ELEMENT_SET_NO":999,"REV_AT_EPOCH":18199,"BSTAR":1.2821876e-5,"MEAN_MOTION_DOT":-8.4e-7,"MEAN_MOTION_DDOT":0},{"OBJECT_NAME":"STARLINK-5184","OBJECT_ID":"2022-136AN","EPOCH":"2026-02-03T06:34:28.824672","MEAN_MOTION":15.08842164,"ECCENTRICITY":0.00018774,"INCLINATION":53.215,"RA_OF_ASC_NODE":128.2574,"ARG_OF_PERICENTER":96.451,"MEAN_ANOMALY":263.6696,"EPHEMERIS_TYPE":0,"CLASSIFICATION_TYPE":"U","NORAD_CAT_ID":54087,"ELEMENT_SET_NO":999,"REV_AT_EPOCH":18179,"BSTAR":4.968261e-6,"MEAN_MOTION_DOT":-2.09e-6,"MEAN_MOTION_DDOT":0},{"OBJECT_NAME":"STARLINK-5153","OBJECT_ID":"2022-136AP","EPOCH":"2026-02-02T15:44:17.604384","MEAN_MOTION":15.08843801,"ECCENTRICITY":0.00013215,"INCLINATION":53.2175,"RA_OF_ASC_NODE":131.5004,"ARG_OF_PERICENTER":86.3975,"MEAN_ANOMALY":273.7169,"EPHEMERIS_TYPE":0,"CLASSIFICATION_TYPE":"U","NORAD_CAT_ID":54088,"ELEMENT_SET_NO":999,"REV_AT_EPOCH":18169,"BSTAR":9.1230407e-5,"MEAN_MOTION_DOT":1.164e-5,"MEAN_MOTION_DDOT":0}]
