STARLINK-5181           
1 54070U 22136V   26033.68422860  .00001603  00000+0  11874-3 0  9993
2 54070  53.2169 140.9629 0001401  87.6933 272.4220 15.08844099181565
STARLINK-5168           
1 54071U 22136W   26033.48184527 -.00000665  00000+0 -23695-4 0  9991
2 54071  53.2176 141.8307 0001963 126.6973 233.4200 15.08825080181539
STARLINK-5146           
1 54073U 22136Y   26033.48044534  .00001612  00000+0  11938-3 0  9993
2 54073  53.2192 136.8414 0001714  92.8802 267.2387 15.08832865181609
STARLINK-5192           
1 54074U 22136Z   26034.27302742 -.00000148  00000+0  87653-5 0  9993
2 54074  53.2175 138.2415 0001222  82.5651 277.5480 15.08835622181657
STARLINK-5212           
1 54075U 22136AA  26033.54299828  .00001049  00000+0  83955-4 0  9993
2 54075  53.2156 136.5173 0001139  89.1233 270.9890 15.08845139181617
STARLINK-5201           
1 54076U 22136AB  26033.73308594  .00000864  00000+0  72371-4 0  9990
2 54076  53.2177 141.2512 0001385 107.1544 252.9600 15.08844016181566
STARLINK-5171           
1 54077U 22136AC  26033.49072542  .00004290  00000+0  28740-3 0  9992
2 54077  53.2178 117.7689 0001491  89.8204 270.2959 15.08848647181876
STARLINK-5175           
1 54079U 22136AE  26034.26297868 -.00000742  00000+0 -28513-4 0  9999
2 54079  53.2177 128.8966 0001194  79.6272 280.4855 15.08839764181788
STARLINK-5160           
1 54080U 22136AF  26034.25699361  .00002301  00000+0  16261-3 0  9991
2 54080  53.2178 133.8609 0001429  96.5361 263.5794 15.08840257181715
STARLINK-5210           
1 54082U 22136AH  26033.53064882  .00000911  00000+0  75302-4 0  9994
2 54082  53.2167 132.1394 0001209  97.8395 262.2734 15.08843541181679
STARLINK-5178           
1 54083U 22136AJ  26034.24824196 -.00000521  00000+0 -14646-4 0  9999
2 54083  53.2188 128.8027 0001654  86.0398 274.0783 15.08842165181783
STARLINK-5183           
1 54084U 22136AK  26033.65943959  .00001464  00000+0  11002-3 0  9990
2 54084  53.2168 131.5204 0000156  77.7331 282.3678 15.08846216181696
STARLINK-5166           
1 54085U 22136AL  26034.24551422 -.00000466  00000+0 -11208-4 0  9999
2 54085  53.2182 128.7847 0001491  94.3488 265.7675 15.08840169181788
STARLINK-5211           
1 54086U 22136AM  26034.24778669 -.00000084  00000+0  12822-4 0  9992
2 54086  53.2151 113.8391 0001206  83.6457 276.4673 15.08833613181991
STARLINK-5184           
1 54087U 22136AN  26034.27394473 -.00000209  00000+0  49683-5 0  9998
2 54087  53.2150 128.2574 0001877  96.4510 263.6696 15.08842164181792
STARLINK-5153           
1 54088U 22136AP  26033.65575931  .00001164  00000+0  91230-4 0  9994
2 54088  53.2175 131.5004 0001321  86.3975 273.7169 15.08843801181697
